*******************************************************************************
JPL/HORIZONS                 2105 Gudy (1976 DA)           2023-Sep-04 11:16:01
Rec #:    2105 (+COV) Soln.date: 2023-Aug-22_16:28:25   # obs: 5853 (1976-2023)
 
IAU76/J2000 helio. ecliptic osc. elements (au, days, deg., period=Julian yrs):
 
  EPOCH=  2457812.5 ! 2017-Feb-28.00 (TDB)         Residual RMS= .26978
   EC= .1502167249998216   QR= 2.030148867095948   TP= 2457339.0920149875
   OM= 273.6210264620825   W=  156.2248423480058   IN= 29.33918820733557
   A= 2.389019561600011    MA= 126.3601387462948   ADIST= 2.747890256104074
   PER= 3.69265            N= .266915943           ANGMOM= .026286649
   DAN= 2.70728            DDN= 2.0529             L= 72.61277629999999
   B= 11.3928052           MOID= 1.05978           TP= 2015-Nov-12.5920149875
 
Asteroid physical parameters (km, seconds, rotational period in hours):
   GM= n.a.                RAD= 9.8365             ROTPER= 15.795
   H= 11.34                G= .150                 B-V= n.a.
                           ALBEDO= .138            STYP= n.a.

ASTEROID comments: 
1: soln ref.= JPL#53, OCC=0
2: source=ORB
*******************************************************************************


*******************************************************************************
Ephemeris / API_USER Mon Sep  4 11:16:01 2023 Pasadena, USA      / Horizons
*******************************************************************************
Target body name: 2105 Gudy (1976 DA)             {source: JPL#53}
Center body name: Solar System Barycenter (0)     {source: DE441}
Center-site name: BODY CENTER
*******************************************************************************
Start time      : A.D. 2023-Aug-12 00:00:00.0000 TDB
Stop  time      : A.D. 2023-Aug-13 00:00:00.0000 TDB
Step-size       : 2880 minutes
*******************************************************************************
Center geodetic : 0.0, 0.0, 0.0                   {E-lon(deg),Lat(deg),Alt(km)}
Center cylindric: 0.0, 0.0, 0.0                   {E-lon(deg),Dxy(km),Dz(km)}
Center radii    : (undefined)
Small perturbers: Yes                             {source: SB441-N16}
Output units    : KM-S
Calendar mode   : Mixed Julian/Gregorian
Output type     : GEOMETRIC cartesian states
Output format   : 2 (position and velocity)
Reference frame : Ecliptic of J2000.0
*******************************************************************************
Initial IAU76/J2000 heliocentric ecliptic osculating elements (au, days, deg.):
  EPOCH=  2457812.5 ! 2017-Feb-28.00 (TDB)         Residual RMS= .26978        
   EC= .1502167249998216   QR= 2.030148867095948   TP= 2457339.0920149875      
   OM= 273.6210264620825   W=  156.2248423480058   IN= 29.33918820733557       
  Equivalent ICRF heliocentric cartesian coordinates (au, au/d):
   X=-2.006091877168458E+00  Y=-6.724728115553282E-01  Z=-1.566058023134465E+00
  VX= 3.387764099870653E-03 VY=-9.183191554271258E-03 VZ=-2.271055905024879E-03
Asteroid physical parameters (km, seconds, rotational period in hours):        
   GM= n.a.                RAD= 9.8365             ROTPER= 15.795              
   H= 11.34                G= .150                 B-V= n.a.                   
                           ALBEDO= .138            STYP= n.a.                  
*******************************************************************************
JDTDB
   X     Y     Z
   VX    VY    VZ
*******************************************************************************
$$SOE
2460168.500000000 = A.D. 2023-Aug-12 00:00:00.0000 TDB 
 X =-1.297729283334497E+08 Y = 2.829292053240598E+08 Z =-6.219867106898721E+07
 VX=-1.745274156223454E+01 VY=-7.718432941260946E+00 VZ=-1.006446620513739E+01
$$EOE
*******************************************************************************
 
TIME

  Barycentric Dynamical Time ("TDB" or T_eph) output was requested. This
continuous coordinate time is equivalent to the relativistic proper time
of a clock at rest in a reference frame co-moving with the solar system
barycenter but outside the system's gravity well. It is the independent
variable in the solar system relativistic equations of motion.

  TDB runs at a uniform rate of one SI second per second and is independent
of irregularities in Earth's rotation.
 
CALENDAR SYSTEM

  Mixed calendar mode was active such that calendar dates after AD 1582-Oct-15
(if any) are in the modern Gregorian system. Dates prior to 1582-Oct-5 (if any)
are in the Julian calendar system, which is automatically extended for dates
prior to its adoption on 45-Jan-1 BC.  The Julian calendar is useful for
matching historical dates. The Gregorian calendar more accurately corresponds
to the Earth's orbital motion and seasons. A "Gregorian-only" calendar mode is
available if such physical events are the primary interest.

REFERENCE FRAME AND COORDINATES

  Ecliptic at the standard reference epoch

    Reference epoch: J2000.0
    X-Y plane: adopted Earth orbital plane at the reference epoch
               Note: IAU76 obliquity of 84381.448 arcseconds wrt ICRF X-Y plane
    X-axis   : ICRF
    Z-axis   : perpendicular to the X-Y plane in the directional (+ or -) sense
               of Earth's north pole at the reference epoch.

  Symbol meaning:

    JDTDB    Julian Day Number, Barycentric Dynamical Time
      X      X-component of position vector (km)
      Y      Y-component of position vector (km)
      Z      Z-component of position vector (km)
      VX     X-component of velocity vector (km/sec)                           
      VY     Y-component of velocity vector (km/sec)                           
      VZ     Z-component of velocity vector (km/sec)                           

ABERRATIONS AND CORRECTIONS

 Geometric state vectors have NO corrections or aberrations applied.

Computations by ...

    Solar System Dynamics Group, Horizons On-Line Ephemeris System
    4800 Oak Grove Drive, Jet Propulsion Laboratory
    Pasadena, CA  91109   USA

    General site: https://ssd.jpl.nasa.gov/
    Mailing list: https://ssd.jpl.nasa.gov/email_list.html
    System news : https://ssd.jpl.nasa.gov/horizons/news.html
    User Guide  : https://ssd.jpl.nasa.gov/horizons/manual.html
    Connect     : browser        https://ssd.jpl.nasa.gov/horizons/app.html#/x
                  API            https://ssd-api.jpl.nasa.gov/doc/horizons.html
                  command-line   telnet ssd.jpl.nasa.gov 6775
                  e-mail/batch   https://ssd.jpl.nasa.gov/ftp/ssd/hrzn_batch.txt
                  scripts        https://ssd.jpl.nasa.gov/ftp/ssd/SCRIPTS
    Author      : Jon.D.Giorgini@jpl.nasa.gov
*******************************************************************************
